CCSDS_OMM_VERS = 2.0
CREATION_DATE  = 
ORIGINATOR     = 

OBJECT_NAME    = SILVERSAT
OBJECT_ID      = 1998-067XV
CENTER_NAME    = EARTH
REF_FRAME      = TEME
TIME_SYSTEM    = UTC
MEAN_ELEMENT_THEORY = SGP/SGP4

EPOCH          = 2026-02-27T09:34:17.196960
MEAN_MOTION    = 15.68246517
ECCENTRICITY   = .00050658
INCLINATION    = 51.6259
RA_OF_ASC_NODE = 117.4322
ARG_OF_PERICENTER = 19.3067
MEAN_ANOMALY   = 340.8120

EPHEMERIS_TYPE = 0
CLASSIFICATION_TYPE = U
NORAD_CAT_ID   = 66909
ELEMENT_SET_NO = 999
REV_AT_EPOCH   = 1357
BSTAR          = .13107535E-2
MEAN_MOTION_DOT = .152013E-2
MEAN_MOTION_DDOT = 0

CCSDS_OMM_VERS = 2.0
CREATION_DATE  = 
ORIGINATOR     = 

OBJECT_NAME    = ISS OBJECT XW
OBJECT_ID      = 1998-067XW
CENTER_NAME    = EARTH
REF_FRAME      = TEME
TIME_SYSTEM    = UTC
MEAN_ELEMENT_THEORY = SGP/SGP4

EPOCH          = 2026-02-27T13:34:16.660704
MEAN_MOTION    = 15.65703469
ECCENTRICITY   = .0004582
INCLINATION    = 51.6258
RA_OF_ASC_NODE = 117.0407
ARG_OF_PERICENTER = 30.4087
MEAN_ANOMALY   = 329.7173

EPHEMERIS_TYPE = 0
CLASSIFICATION_TYPE = U
NORAD_CAT_ID   = 66910
ELEMENT_SET_NO = 999
REV_AT_EPOCH   = 1359
BSTAR          = .10224828E-2
MEAN_MOTION_DOT = .106222E-2
MEAN_MOTION_DDOT = 0

CCSDS_OMM_VERS = 2.0
CREATION_DATE  = 
ORIGINATOR     = 

OBJECT_NAME    = ISS OBJECT XX
OBJECT_ID      = 1998-067XX
CENTER_NAME    = EARTH
REF_FRAME      = TEME
TIME_SYSTEM    = UTC
MEAN_ELEMENT_THEORY = SGP/SGP4

EPOCH          = 2026-02-27T20:35:58.411680
MEAN_MOTION    = 15.70587214
ECCENTRICITY   = .00067148
INCLINATION    = 51.6226
RA_OF_ASC_NODE = 114.4867
ARG_OF_PERICENTER = 28.0055
MEAN_ANOMALY   = 332.1302

EPHEMERIS_TYPE = 0
CLASSIFICATION_TYPE = U
NORAD_CAT_ID   = 66911
ELEMENT_SET_NO = 999
REV_AT_EPOCH   = 1364
BSTAR          = .14480309E-2
MEAN_MOTION_DOT = .185954E-2
MEAN_MOTION_DDOT = 0

CCSDS_OMM_VERS = 2.0
CREATION_DATE  = 
ORIGINATOR     = 

OBJECT_NAME    = ISS OBJECT XY
OBJECT_ID      = 1998-067XY
CENTER_NAME    = EARTH
REF_FRAME      = TEME
TIME_SYSTEM    = UTC
MEAN_ELEMENT_THEORY = SGP/SGP4

EPOCH          = 2026-02-27T12:59:18.391776
MEAN_MOTION    = 15.61698876
ECCENTRICITY   = .00025765
INCLINATION    = 51.6275
RA_OF_ASC_NODE = 118.3910
ARG_OF_PERICENTER = 36.5071
MEAN_ANOMALY   = 323.6098

EPHEMERIS_TYPE = 0
CLASSIFICATION_TYPE = U
NORAD_CAT_ID   = 66912
ELEMENT_SET_NO = 999
REV_AT_EPOCH   = 1356
BSTAR          = .79846588E-3
MEAN_MOTION_DOT = .70355E-3
MEAN_MOTION_DDOT = 0

CCSDS_OMM_VERS = 2.0
CREATION_DATE  = 
ORIGINATOR     = 

OBJECT_NAME    = ISS OBJECT XZ
OBJECT_ID      = 1998-067XZ
CENTER_NAME    = EARTH
REF_FRAME      = TEME
TIME_SYSTEM    = UTC
MEAN_ELEMENT_THEORY = SGP/SGP4

EPOCH          = 2026-02-27T20:55:39.465120
MEAN_MOTION    = 15.50956488
ECCENTRICITY   = .00096561
INCLINATION    = 51.6314
RA_OF_ASC_NODE = 120.5995
ARG_OF_PERICENTER = 153.2711
MEAN_ANOMALY   = 206.8777

EPHEMERIS_TYPE = 0
CLASSIFICATION_TYPE = U
NORAD_CAT_ID   = 67683
ELEMENT_SET_NO = 999
REV_AT_EPOCH   = 326
BSTAR          = .61542729E-3
MEAN_MOTION_DOT = .36099E-3
MEAN_MOTION_DDOT = 0

CCSDS_OMM_VERS = 2.0
CREATION_DATE  = 
ORIGINATOR     = 

OBJECT_NAME    = GXIBA-1
OBJECT_ID      = 1998-067YA
CENTER_NAME    = EARTH
REF_FRAME      = TEME
TIME_SYSTEM    = UTC
MEAN_ELEMENT_THEORY = SGP/SGP4

EPOCH          = 2026-02-27T11:19:06.987360
MEAN_MOTION    = 15.52586830
ECCENTRICITY   = .00111597
INCLINATION    = 51.6305
RA_OF_ASC_NODE = 122.4273
ARG_OF_PERICENTER = 143.0590
MEAN_ANOMALY   = 217.1170

EPHEMERIS_TYPE = 0
CLASSIFICATION_TYPE = U
NORAD_CAT_ID   = 67684
ELEMENT_SET_NO = 999
REV_AT_EPOCH   = 320
BSTAR          = .10797292E-2
MEAN_MOTION_DOT = .67855E-3
MEAN_MOTION_DDOT = 0

CCSDS_OMM_VERS = 2.0
CREATION_DATE  = 
ORIGINATOR     = 

OBJECT_NAME    = CORAL
OBJECT_ID      = 1998-067YB
CENTER_NAME    = EARTH
REF_FRAME      = TEME
TIME_SYSTEM    = UTC
MEAN_ELEMENT_THEORY = SGP/SGP4

EPOCH          = 2026-02-27T10:02:42.500544
MEAN_MOTION    = 15.51180735
ECCENTRICITY   = .00116536
INCLINATION    = 51.6318
RA_OF_ASC_NODE = 122.8225
ARG_OF_PERICENTER = 147.7216
MEAN_ANOMALY   = 212.4489

EPHEMERIS_TYPE = 0
CLASSIFICATION_TYPE = U
NORAD_CAT_ID   = 67685
ELEMENT_SET_NO = 999
REV_AT_EPOCH   = 319
BSTAR          = .68987415E-3
MEAN_MOTION_DOT = .4091E-3
MEAN_MOTION_DDOT = 0

CCSDS_OMM_VERS = 2.0
CREATION_DATE  = 
ORIGINATOR     = 

OBJECT_NAME    = ISS OBJECT YC
OBJECT_ID      = 1998-067YC
CENTER_NAME    = EARTH
REF_FRAME      = TEME
TIME_SYSTEM    = UTC
MEAN_ELEMENT_THEORY = SGP/SGP4

EPOCH          = 2026-02-27T11:31:37.085376
MEAN_MOTION    = 15.51530870
ECCENTRICITY   = .00076547
INCLINATION    = 51.6315
RA_OF_ASC_NODE = 122.4856
ARG_OF_PERICENTER = 116.6390
MEAN_ANOMALY   = 243.5385

EPHEMERIS_TYPE = 0
CLASSIFICATION_TYPE = U
NORAD_CAT_ID   = 67686
ELEMENT_SET_NO = 999
REV_AT_EPOCH   = 320
BSTAR          = .82192106E-3
MEAN_MOTION_DOT = .49428E-3
MEAN_MOTION_DDOT = 0

CCSDS_OMM_VERS = 2.0
CREATION_DATE  = 
ORIGINATOR     = 

OBJECT_NAME    = LEOPARD
OBJECT_ID      = 1998-067YD
CENTER_NAME    = EARTH
REF_FRAME      = TEME
TIME_SYSTEM    = UTC
MEAN_ELEMENT_THEORY = SGP/SGP4

EPOCH          = 2026-02-27T20:53:39.546240
MEAN_MOTION    = 15.51082047
ECCENTRICITY   = .00076889
INCLINATION    = 51.6315
RA_OF_ASC_NODE = 120.5917
ARG_OF_PERICENTER = 121.4598
MEAN_ANOMALY   = 238.7144

EPHEMERIS_TYPE = 0
CLASSIFICATION_TYPE = U
NORAD_CAT_ID   = 67687
ELEMENT_SET_NO = 999
REV_AT_EPOCH   = 318
BSTAR          = .62917909E-3
MEAN_MOTION_DOT = .37064E-3
MEAN_MOTION_DDOT = 0

CCSDS_OMM_VERS = 2.0
CREATION_DATE  = 
ORIGINATOR     = 

OBJECT_NAME    = ISS OBJECT YE
OBJECT_ID      = 1998-067YE
CENTER_NAME    = EARTH
REF_FRAME      = TEME
TIME_SYSTEM    = UTC
MEAN_ELEMENT_THEORY = SGP/SGP4

EPOCH          = 2026-02-27T10:00:31.918176
MEAN_MOTION    = 15.51362636
ECCENTRICITY   = .00076193
INCLINATION    = 51.6320
RA_OF_ASC_NODE = 122.8134
ARG_OF_PERICENTER = 117.1331
MEAN_ANOMALY   = 243.0436

EPHEMERIS_TYPE = 0
CLASSIFICATION_TYPE = U
NORAD_CAT_ID   = 67688
ELEMENT_SET_NO = 999
REV_AT_EPOCH   = 311
BSTAR          = .73241565E-3
MEAN_MOTION_DOT = .43696E-3
MEAN_MOTION_DDOT = 0

CCSDS_OMM_VERS = 2.0
CREATION_DATE  = 
ORIGINATOR     = 

OBJECT_NAME    = CREW DRAGON 12
OBJECT_ID      = 2026-031A
CENTER_NAME    = EARTH
REF_FRAME      = TEME
TIME_SYSTEM    = UTC
MEAN_ELEMENT_THEORY = SGP/SGP4

EPOCH          = 2026-02-27T21:31:51.403872
MEAN_MOTION    = 15.48349372
ECCENTRICITY   = .00083217
INCLINATION    = 51.6325
RA_OF_ASC_NODE = 120.7666
ARG_OF_PERICENTER = 140.4027
MEAN_ANOMALY   = 219.7571

EPHEMERIS_TYPE = 0
CLASSIFICATION_TYPE = U
NORAD_CAT_ID   = 67796
ELEMENT_SET_NO = 999
REV_AT_EPOCH   = 55455
BSTAR          = .2272581E-3
MEAN_MOTION_DOT = .1182E-3
MEAN_MOTION_DDOT = 0

